{
    "links": {
        "self": "http://www.neowsapp.com/rest/v1/neo/3703889?api_key=iIulBulltgU6a56xZRHN4H3l9WmuAYTsLGpBGhQ2"
    },
    "id": "3703889",
    "neo_reference_id": "3703889",
    "name": "(2015 BM)",
    "designation": "2015 BM",
    "nasa_jpl_url": "http://ssd.jpl.nasa.gov/sbdb.cgi?sstr=3703889",
    "absolute_magnitude_h": 25.7,
    "estimated_diameter": {
        "kilometers": {
            "estimated_diameter_min": 0.0192555078,
            "estimated_diameter_max": 0.0430566244
        },
        "meters": {
            "estimated_diameter_min": 19.2555078188,
            "estimated_diameter_max": 43.0566244241
        },
        "miles": {
            "estimated_diameter_min": 0.0119648141,
            "estimated_diameter_max": 0.0267541378
        },
        "feet": {
            "estimated_diameter_min": 63.1742402722,
            "estimated_diameter_max": 141.2618956756
        }
    },
    "is_potentially_hazardous_asteroid": false,
    "close_approach_data": [
        {
            "close_approach_date": "1926-03-19",
            "close_approach_date_full": "1926-Mar-19 08:21",
            "epoch_date_close_approach": -1381851540000,
            "relative_velocity": {
                "kilometers_per_second": "17.0391998929",
                "kilometers_per_hour": "61341.1196143529",
                "miles_per_hour": "38114.9862403739"
            },
            "miss_distance": {
                "astronomical": "0.3755873824",
                "lunar": "146.1034917536",
                "kilometers": "56187072.405915488",
                "miles": "34913027.8544222144"
            },
            "orbiting_body": "Earth"
        },
        {
            "close_approach_date": "2015-01-27",
            "close_approach_date_full": "2015-Jan-27 13:12",
            "epoch_date_close_approach": 1422364320000,
            "relative_velocity": {
                "kilometers_per_second": "6.112458602",
                "kilometers_per_hour": "22004.8509672051",
                "miles_per_hour": "13672.958646817"
            },
            "miss_distance": {
                "astronomical": "0.0876998888",
                "lunar": "34.1152567432",
                "kilometers": "13119716.563716856",
                "miles": "8152213.8495143728"
            },
            "orbiting_body": "Earth"
        },
        {
            "close_approach_date": "2104-03-23",
            "close_approach_date_full": "2104-Mar-23 04:08",
            "epoch_date_close_approach": 4235688480000,
            "relative_velocity": {
                "kilometers_per_second": "18.3468499393",
                "kilometers_per_hour": "66048.6597813072",
                "miles_per_hour": "41040.0686291128"
            },
            "miss_distance": {
                "astronomical": "0.4512954372",
                "lunar": "175.5539250708",
                "kilometers": "67512836.145838764",
                "miles": "41950531.1090483832"
            },
            "orbiting_body": "Earth"
        }
    ],
    "orbital_data": {
        "orbit_id": "5",
        "orbit_determination_date": "2017-04-06 08:36:18",
        "first_observation_date": "2015-01-16",
        "last_observation_date": "2015-01-22",
        "data_arc_in_days": 6,
        "observations_used": 21,
        "orbit_uncertainty": "8",
        "minimum_orbit_intersection": ".0813817",
        "jupiter_tisserand_invariant": "3.352",
        "epoch_osculation": "2457041.5",
        "eccentricity": ".5438525222813203",
        "semi_major_axis": "2.334602065475798",
        "inclination": "2.378623288983901",
        "ascending_node_longitude": "287.9639713983468",
        "orbital_period": "1302.91992314963",
        "perihelion_distance": "1.064922843643605",
        "perihelion_argument": "205.5723449120742",
        "aphelion_distance": "3.60428128730799",
        "perihelion_time": "2457054.418351123574",
        "mean_anomaly": "356.4306276066112",
        "mean_motion": ".2763024753890858",
        "equinox": "J2000",
        "orbit_class": {
            "orbit_class_type": "AMO",
            "orbit_class_description": "Near-Earth asteroid orbits similar to that of 1221 Amor",
            "orbit_class_range": "1.017 AU < q (perihelion) < 1.3 AU"
        }
    },
    "is_sentry_object": false
}